ANGOSAT 2               
1 54033U 22131A   26182.51769634  .00000146  00000+0  00000+0 0  9993
2 54033   0.0228  97.0368 0000373 356.1781  35.7176  1.00272558 13627
EUTELSAT HOTBIRD 13F    
1 54048U 22134A   26182.37321141  .00000098  00000+0  00000+0 0  9999
2 54048   0.0583 288.4581 0001823  78.1804  60.1754  1.00272907 13518
LDPE-2                  
1 54219U 22144A   26182.57415285  .00000101  00000+0  00000+0 0  9990
2 54219   5.6457  63.5344 0002257  96.1072 182.8847  1.00539692 11988
EUTELSAT HOTBIRD 13G    
1 54225U 22146A   26180.73566600  .00000097  00000+0  00000+0 0  9997
2 54225   0.0645 217.9646 0001958 297.8038  39.8734  1.00262523  7596
ZHONGXING-19            
1 54230U 22148A   26181.53834434 -.00000070  00000+0  00000+0 0  9999
2 54230   0.0397  81.2762 0002925  35.8417 158.5090  1.00272797 13510
GALAXY 31 (G-31)        
1 54243U 22153A   26182.56770957  .00000024  00000+0  00000+0 0  9990
2 54243   0.0155  61.4199 0001597  35.8277 265.7380  1.00272003  7277
GALAXY 32 (G-32)        
1 54244U 22153B   26182.42390999 -.00000164  00000+0  00000+0 0  9996
2 54244   0.0075  19.9443 0002074  30.4815 290.6632  1.00273064 13282
EUTELSAT 10B            
1 54259U 22157A   26182.51526966  .00000079  00000+0  00000+0 0  9995
2 54259   0.0611  96.7132 0002158   0.2115  18.1355  1.00276534 13171
GALAXY 35 (G-35)        
1 54741U 22170A   26182.55422100 -.00000152  00000+0  00000+0 0  9998
2 54741   0.0161  47.1825 0002340  53.5929 285.2368  1.00273376 13030
GALAXY 36 (G-36)        
1 54742U 22170B   26182.56925421 -.00000175  00000+0  00000+0 0  9999
2 54742   0.0067 331.2794 0002855 122.1653 302.1009  1.00270685 12913
METEOSAT-12 (MTG-I1)    
1 54743U 22170C   26182.15671559  .00000004  00000+0  00000+0 0  9995
2 54743   0.7533  25.1015 0003663  73.6731 236.5905  1.00276135 13113
SHIJIAN-23 (SJ-23)      
1 55131U 23002A   26182.74939384 -.00000307  00000+0  00000+0 0  9997
2 55131   3.7528  78.1374 0003549 278.9198 330.9024  1.00083874 12653
APSTAR-6E               
1 55239U 23005A   26181.68434565 -.00000306  00000+0  00000+0 0  9991
2 55239   0.0502 228.0167 0001129 292.6493 138.4482  1.00276647 18829
USA 342                 
1 55263U 23008A   26182.16156895  .00000000  00000+0  00000+0 0  9992
2 55263   0.0057  55.5286 0000567 166.1191 139.6640  1.00270158 12656
LDPE-3A                 
1 55264U 23008B   26182.58694428 -.00000052  00000+0  00000+0 0  9996
2 55264   2.3834  81.4980 0001575  56.9366 185.1867  0.99150599 11956
ELEKTRO-L 4             
1 55506U 23016A   26181.76497730 -.00000048  00000+0  00000+0 0  9995
2 55506   0.0899 142.4785 0001035  39.9122 177.6038  1.00271697 12474
AMAZONAS NEXUS          
1 55508U 23017A   26182.50114294 -.00000272  00000+0  00000+0 0  9991
2 55508   0.0354  38.4058 0005075  39.5421 321.0198  1.00270256  7189
ZHONGXING-26            
1 55686U 23023A   26180.68456625 -.00000342  00000+0  00000+0 0  9997
2 55686   0.0638  69.5474 0003458  28.5668 191.2311  1.00272817 12356
LUCH-5X (OLYMP-K 2)     
1 55841U 23031A   26182.75112139  .00000044  00000+0  00000+0 0  9996
2 55841   0.0302  85.8997 0001030 149.9136  16.3457  1.00271918 12089
GAOFEN-13 02            
1 55912U 23036A   26182.60627788 -.00000209  00000+0  00000+0 0  9999
2 55912   1.0228   2.8758 0003542 337.5747 305.6528  1.00268147 12233
SES-18                  
1 55970U 23038A   26182.55837428 -.00000091  00000+0  00000+0 0  9992
2 55970   0.0417 271.3737 0000189 176.1331 290.0110  1.00272752 12248
SES-19                  
1 55971U 23038B   26182.55364674  .00000098  00000+0  00000+0 0  9997
2 55971   0.0110  20.5906 0002000  83.2434 240.1961  1.00274235 12234
INTELSAT 40E (IS-40E)   
1 56174U 23052A   26182.42390999  .00000000  00000+0  00000+0 0  9997
2 56174   0.0230  52.5381 0002487  79.4872 209.0657  1.00269493 11962
VIASAT-3 F1             
1 56370U 23060A   26182.42425666  .00000000  00000+0  00000+0 0  9994
2 56370   0.0205   1.7084 0001498 100.4806 241.0466  1.00283162 11571
ARCTURUS                
1 56371U 23060B   26182.46247957 -.00000223  00000+0  00000+0 0  9992
2 56371   2.8106  79.7621 0000416 170.4937 278.6777  1.00598785 11600
GS-1                    
1 56372U 23060C   26180.72441301 -.00000215  00000+0  00000+0 0  9990
2 56372   2.7571  79.6877 0003644 279.8001 268.5552  1.00271102  7661
BEIDOU-3 G4             
1 56564U 23066A   26182.61231295 -.00000271  00000+0  00000+0 0  9990
2 56564   0.4719 335.0709 0005006 176.1958 128.8586  1.00269266 11534
ARABSAT-7B (BADR-8)     
1 56757U 23075A   26182.16191561  .00000155  00000+0  00000+0 0  9995
2 56757   0.0737  28.3102 0004133   5.5562 329.6398  1.00273673 11257
NVS-01 (IRNSS-1J)       
1 56759U 23076A   26182.53894622 -.00000324  00000+0  00000+0 0  9996
2 56759   2.1339 243.7024 0002877   9.3022 350.1818  1.00272487 11261
NUSANTARA TIGA (SATRIA) 
1 57045U 23086A   26182.60157310 -.00000225  00000+0  00000+0 0  9990
2 57045   0.0362   4.4485 0002466 338.2193 299.5441  1.00268853  9901
H2SAT (HEINRICH HERTZ)  
1 57213U 23093A   26182.37078473  .00000012  00000+0  00000+0 0  9994
2 57213   0.0286  95.5218 0001115  17.7915 300.3053  1.00269911 11054
