OBJECT_NAME,OBJECT_ID,EPOCH,MEAN_MOTION,ECCENTRICITY,INCLINATION,RA_OF_ASC_NODE,ARG_OF_PERICENTER,MEAN_ANOMALY,EPHEMERIS_TYPE,CLASSIFICATION_TYPE,NORAD_CAT_ID,ELEMENT_SET_NO,REV_AT_EPOCH,BSTAR,MEAN_MOTION_DOT,MEAN_MOTION_DDOT
ANGOSAT 2,2022-131A,2026-07-01T12:25:28.963776,1.00272558,.00003733,0.0228,97.0368,356.1781,35.7176,0,U,54033,999,1362,0,.146E-5,0
EUTELSAT HOTBIRD 13F,2022-134A,2026-07-01T08:57:25.465824,1.00272907,.00018231,0.0583,288.4581,78.1804,60.1754,0,U,54048,999,1351,0,.98E-6,0
LDPE-2,2022-144A,2026-07-01T13:46:46.806240,1.00539692,.00022578,5.6457,63.5344,96.1072,182.8847,0,U,54219,999,1198,0,.101E-5,0
EUTELSAT HOTBIRD 13G,2022-146A,2026-06-29T17:39:21.542400,1.00262523,.00019588,0.0645,217.9646,297.8038,39.8734,0,U,54225,999,759,0,.97E-6,0
ZHONGXING-19,2022-148A,2026-06-30T12:55:12.950976,1.00272797,.00029256,0.0397,81.2762,35.8417,158.5090,0,U,54230,999,1351,0,-.7E-6,0
GALAXY 31 (G-31),2022-153A,2026-07-01T13:37:30.106848,1.00272003,.00015977,0.0155,61.4199,35.8277,265.7380,0,U,54243,999,727,0,.24E-6,0
GALAXY 32 (G-32),2022-153B,2026-07-01T10:10:25.823136,1.00273064,.00020745,0.0075,19.9443,30.4815,290.6632,0,U,54244,999,1328,0,-.164E-5,0
EUTELSAT 10B,2022-157A,2026-07-01T12:21:59.298624,1.00276534,.0002158,0.0611,96.7132,0.2115,18.1355,0,U,54259,999,1317,0,.79E-6,0
GALAXY 35 (G-35),2022-170A,2026-07-01T13:18:04.694400,1.00273376,.00023407,0.0161,47.1825,53.5929,285.2368,0,U,54741,999,1303,0,-.152E-5,0
GALAXY 36 (G-36),2022-170B,2026-07-01T13:39:43.563744,1.00270685,.00028557,0.0067,331.2794,122.1653,302.1009,0,U,54742,999,1291,0,-.175E-5,0
METEOSAT-12 (MTG-I1),2022-170C,2026-07-01T03:45:40.226976,1.00276135,.00036636,0.7533,25.1015,73.6731,236.5905,0,U,54743,999,1311,0,.4E-7,0
SHIJIAN-23 (SJ-23),2023-002A,2026-07-01T17:59:07.627776,1.00083874,.0003549,3.7528,78.1374,278.9198,330.9024,0,U,55131,999,1265,0,-.307E-5,0
APSTAR-6E,2023-005A,2026-06-30T16:25:27.464160,1.00276647,.00011293,0.0502,228.0167,292.6493,138.4482,0,U,55239,999,1882,0,-.306E-5,0
USA 342,2023-008A,2026-07-01T03:52:39.557280,1.00270158,.0000567,0.0057,55.5286,166.1191,139.6640,0,U,55263,999,1265,0,0,0
LDPE-3A,2023-008B,2026-07-01T14:05:11.985792,0.99150599,.00015757,2.3834,81.4980,56.9366,185.1867,0,U,55264,999,1195,0,-.52E-6,0
ELEKTRO-L 4,2023-016A,2026-06-30T18:21:34.038720,1.00271697,.00010359,0.0899,142.4785,39.9122,177.6038,0,U,55506,999,1247,0,-.48E-6,0
AMAZONAS NEXUS,2023-017A,2026-07-01T12:01:38.750016,1.00270256,.00050753,0.0354,38.4058,39.5421,321.0198,0,U,55508,999,718,0,-.272E-5,0
ZHONGXING-26,2023-023A,2026-06-29T16:25:46.524000,1.00272817,.00034584,0.0638,69.5474,28.5668,191.2311,0,U,55686,999,1235,0,-.342E-5,0
LUCH-5X (OLYMP-K 2),2023-031A,2026-07-01T18:01:36.888096,1.00271918,.000103,0.0302,85.8997,149.9136,16.3457,0,U,55841,999,1208,0,.44E-6,0
GAOFEN-13 02,2023-036A,2026-07-01T14:33:02.408832,1.00268147,.00035425,1.0228,2.8758,337.5747,305.6528,0,U,55912,999,1223,0,-.209E-5,0
SES-18,2023-038A,2026-07-01T13:24:03.537792,1.00272752,.00001891,0.0417,271.3737,176.1331,290.0110,0,U,55970,999,1224,0,-.91E-6,0
SES-19,2023-038B,2026-07-01T13:17:15.078336,1.00274235,.00020009,0.0110,20.5906,83.2434,240.1961,0,U,55971,999,1223,0,.98E-6,0
INTELSAT 40E (IS-40E),2023-052A,2026-07-01T10:10:25.823136,1.00269493,.00024874,0.0230,52.5381,79.4872,209.0657,0,U,56174,999,1196,0,0,0
VIASAT-3 F1,2023-060A,2026-07-01T10:10:55.775424,1.00283162,.00014984,0.0205,1.7084,100.4806,241.0466,0,U,56370,999,1157,0,0,0
ARCTURUS,2023-060B,2026-07-01T11:05:58.234848,1.00598785,.00004169,2.8106,79.7621,170.4937,278.6777,0,U,56371,999,1160,0,-.223E-5,0
GS-1,2023-060C,2026-06-29T17:23:09.284064,1.00271102,.00036448,2.7571,79.6877,279.8001,268.5552,0,U,56372,999,766,0,-.215E-5,0
BEIDOU-3 G4,2023-066A,2026-07-01T14:41:43.838880,1.00269266,.00050061,0.4719,335.0709,176.1958,128.8586,0,U,56564,999,1153,0,-.271E-5,0
ARABSAT-7B (BADR-8),2023-075A,2026-07-01T03:53:09.508704,1.00273673,.00041333,0.0737,28.3102,5.5562,329.6398,0,U,56757,999,1125,0,.155E-5,0
NVS-01 (IRNSS-1J),2023-076A,2026-07-01T12:56:04.953408,1.00272487,.00028771,2.1339,243.7024,9.3022,350.1818,0,U,56759,999,1126,0,-.324E-5,0
NUSANTARA TIGA (SATRIA),2023-086A,2026-07-01T14:26:15.915840,1.00268853,.00024667,0.0362,4.4485,338.2193,299.5441,0,U,57045,999,990,0,-.225E-5,0
H2SAT (HEINRICH HERTZ),2023-093A,2026-07-01T08:53:55.800672,1.00269911,.00011155,0.0286,95.5218,17.7915,300.3053,0,U,57213,999,1105,0,.12E-6,0
